{
    "links": {
        "self": "http://www.neowsapp.com/rest/v1/neo/3837519?api_key=iIulBulltgU6a56xZRHN4H3l9WmuAYTsLGpBGhQ2"
    },
    "id": "3837519",
    "neo_reference_id": "3837519",
    "name": "(2018 XE20)",
    "designation": "2018 XE20",
    "nasa_jpl_url": "http://ssd.jpl.nasa.gov/sbdb.cgi?sstr=3837519",
    "absolute_magnitude_h": 21.1,
    "estimated_diameter": {
        "kilometers": {
            "estimated_diameter_min": 0.160160338,
            "estimated_diameter_max": 0.358129403
        },
        "meters": {
            "estimated_diameter_min": 160.1603379786,
            "estimated_diameter_max": 358.1294030194
        },
        "miles": {
            "estimated_diameter_min": 0.0995189894,
            "estimated_diameter_max": 0.2225312253
        },
        "feet": {
            "estimated_diameter_min": 525.4604432536,
            "estimated_diameter_max": 1174.9652706022
        }
    },
    "is_potentially_hazardous_asteroid": false,
    "close_approach_data": [
        {
            "close_approach_date": "1986-12-11",
            "close_approach_date_full": "1986-Dec-11 19:48",
            "epoch_date_close_approach": 534714480000,
            "relative_velocity": {
                "kilometers_per_second": "11.8797062066",
                "kilometers_per_hour": "42766.9423438514",
                "miles_per_hour": "26573.7148136004"
            },
            "miss_distance": {
                "astronomical": "0.4677236133",
                "lunar": "181.9444855737",
                "kilometers": "69970456.298383671",
                "miles": "43477625.4595338198"
            },
            "orbiting_body": "Earth"
        },
        {
            "close_approach_date": "2002-12-19",
            "close_approach_date_full": "2002-Dec-19 23:03",
            "epoch_date_close_approach": 1040338980000,
            "relative_velocity": {
                "kilometers_per_second": "11.5617401542",
                "kilometers_per_hour": "41622.2645551387",
                "miles_per_hour": "25862.4565509416"
            },
            "miss_distance": {
                "astronomical": "0.4768427296",
                "lunar": "185.4918218144",
                "kilometers": "71334656.673145952",
                "miles": "44325300.2652080576"
            },
            "orbiting_body": "Earth"
        },
        {
            "close_approach_date": "2038-03-22",
            "close_approach_date_full": "2038-Mar-22 17:46",
            "epoch_date_close_approach": 2152892760000,
            "relative_velocity": {
                "kilometers_per_second": "11.6050899801",
                "kilometers_per_hour": "41778.3239284676",
                "miles_per_hour": "25959.4257765526"
            },
            "miss_distance": {
                "astronomical": "0.0825333165",
                "lunar": "32.1054601185",
                "kilometers": "12346808.352435855",
                "miles": "7671950.957110599"
            },
            "orbiting_body": "Mars"
        }
    ],
    "orbital_data": {
        "orbit_id": "4",
        "orbit_determination_date": "2019-02-03 07:03:17",
        "first_observation_date": "2018-12-15",
        "last_observation_date": "2019-02-02",
        "data_arc_in_days": 49,
        "observations_used": 19,
        "orbit_uncertainty": "6",
        "minimum_orbit_intersection": ".457778",
        "jupiter_tisserand_invariant": "3.473",
        "epoch_osculation": "2459000.5",
        "eccentricity": ".4220435249625973",
        "semi_major_axis": "2.166949226641687",
        "inclination": "23.69252614379734",
        "ascending_node_longitude": "118.3887646321459",
        "orbital_period": "1165.12234200262",
        "perihelion_distance": "1.252402336614855",
        "perihelion_argument": "282.9980129926607",
        "aphelion_distance": "3.081496116668519",
        "perihelion_time": "2459559.712422739165",
        "mean_anomaly": "187.2143062332191",
        "mean_motion": ".3089804280821098",
        "equinox": "J2000",
        "orbit_class": {
            "orbit_class_type": "AMO",
            "orbit_class_description": "Near-Earth asteroid orbits similar to that of 1221 Amor",
            "orbit_class_range": "1.017 AU < q (perihelion) < 1.3 AU"
        }
    },
    "is_sentry_object": false
}